SL-8 R/B                
1 19257U 88053B   26066.15401088  .00000296  00000+0  10433-3 0  9995
2 19257  74.0464 117.1408 0021392 296.7836 126.4411 14.38913852976231
COSMOS 1975             
1 19573U 88093A   26066.17089921  .00008250  00000+0  30008-3 0  9998
2 19573  82.5184 120.2137 0011972 171.7355 188.4084 15.28023621 19025
SL-14 R/B               
1 19574U 88093B   26066.03704927  .00000731  00000+0  81239-4 0  9993
2 19574  82.5300  44.5339 0021928  49.8318  19.4630 14.85652338   625
SL-16 R/B               
1 19650U 88102B   26065.37318087  .00000182  00000+0  11628-3 0  9997
2 19650  71.0000 158.4751 0013733   6.7400 353.3905 14.16150141926421
INTERCOSMOS 24          
1 20261U 89080A   26066.18138175  .00000840  00000+0  24990-3 0  9998
2 20261  82.6029 106.0379 1186737 298.6480  50.0293 12.59552940666487
SL-14 R/B               
1 20262U 89080C   26065.35502846  .00000887  00000+0  26385-3 0  9998
2 20262  82.5973 175.3263 1230446 192.3694 164.4455 12.50488976659738
DELTA 1 R/B             
1 20323U 89089B   26066.13769564  .00000398  00000+0  10679-3 0  9990
2 20323  97.0707 273.9823 0070313 129.9364 230.8041 14.50660348895360
ARIANE 40 R/B           
1 20443U 90005H   26066.17286741  .00000318  00000+0  11476-3 0  9996
2 20443  98.3088 126.9093 0009690 206.2231 153.8468 14.39868310892446
DELTA 2 R/B(1)          
1 20453U 90008B   26065.42270898  .00071040  00000+0  84423-3 0  9995
2 20453  35.6042 196.2874 0086164 228.5737 130.7570 15.55480561925629
COSMOS 2058             
1 20465U 90010A   26066.19838804  .00004969  00000+0  29327-3 0  9991
2 20465  82.4672  49.8823 0009590 351.9384   8.1690 15.11292739941860
SL-14 R/B               
1 20466U 90010B   26066.05647985  .00000471  00000+0  54152-4 0  9994
2 20466  82.4989 269.8630 0018695 311.5905  48.3707 14.83565839928096
SL-14 R/B               
1 20511U 90018B   26065.93676910  .00000644  00000+0  77717-4 0  9993
2 20511  82.5197 225.6628 0017638 100.3707 259.9496 14.82140967922174
HST                     
1 20580U 90037B   26066.07173350  .00008800  00000+0  29166-3 0  9992
2 20580  28.4710  57.8566 0001811 100.2255 259.8544 15.29432288772919
SL-16 R/B               
1 20625U 90046B   26066.08159335 -.00000248  00000+0 -10331-3 0  9994
2 20625  70.9992 303.3924 0016212 303.1052  56.8514 14.15013323848027
COSMOS 2084             
1 20663U 90055A   26066.13178480  .00003059  00000+0  22415-3 0  9991
2 20663  62.7925 344.3021 0017446 189.2784 170.7997 15.05631560935939
SL-6 R/B(2)             
1 20666U 90055D   26065.97791483  .00002277  00000+0  17946-3 0  9993
2 20666  62.7821 263.0729 0024295 346.3598  13.6841 15.03577653937786
SL-8 R/B                
1 20775U 90078B   26066.02209157  .00016688  00000+0  49097-3 0  9991
2 20775  82.8998 253.7106 0362913  22.9600 338.7382 14.88950066808900
