[{"OBJECT_NAME":"SL-8 R/B","OBJECT_ID":"1988-053B","EPOCH":"2026-03-07T03:41:46.540032","MEAN_MOTION":14.38913852,"ECCENTRICITY":0.0021392,"INCLINATION":74.0464,"RA_OF_ASC_NODE":117.1408,"ARG_OF_PERICENTER":296.7836,"MEAN_ANOMALY":126.4411,"EPHEMERIS_TYPE":0,"CLASSIFICATION_TYPE":"U","NORAD_CAT_ID":19257,"ELEMENT_SET_NO":999,"REV_AT_EPOCH":97623,"BSTAR":0.00010433,"MEAN_MOTION_DOT":2.96e-6,"MEAN_MOTION_DDOT":0},{"OBJECT_NAME":"COSMOS 1975","OBJECT_ID":"1988-093A","EPOCH":"2026-03-07T04:06:05.691744","MEAN_MOTION":15.28023621,"ECCENTRICITY":0.0011972,"INCLINATION":82.5184,"RA_OF_ASC_NODE":120.2137,"ARG_OF_PERICENTER":171.7355,"MEAN_ANOMALY":188.4084,"EPHEMERIS_TYPE":0,"CLASSIFICATION_TYPE":"U","NORAD_CAT_ID":19573,"ELEMENT_SET_NO":999,"REV_AT_EPOCH":1902,"BSTAR":0.00030008,"MEAN_MOTION_DOT":8.25e-5,"MEAN_MOTION_DDOT":0},{"OBJECT_NAME":"SL-14 R/B","OBJECT_ID":"1988-093B","EPOCH":"2026-03-07T00:53:21.056928","MEAN_MOTION":14.85652338,"ECCENTRICITY":0.0021928,"INCLINATION":82.53,"RA_OF_ASC_NODE":44.5339,"ARG_OF_PERICENTER":49.8318,"MEAN_ANOMALY":19.463,"EPHEMERIS_TYPE":0,"CLASSIFICATION_TYPE":"U","NORAD_CAT_ID":19574,"ELEMENT_SET_NO":999,"REV_AT_EPOCH":62,"BSTAR":8.1239e-5,"MEAN_MOTION_DOT":7.31e-6,"MEAN_MOTION_DDOT":0},{"OBJECT_NAME":"SL-16 R/B","OBJECT_ID":"1988-102B","EPOCH":"2026-03-06T08:57:22.827168","MEAN_MOTION":14.16150141,"ECCENTRICITY":0.00137339,"INCLINATION":71,"RA_OF_ASC_NODE":158.4751,"ARG_OF_PERICENTER":6.74,"MEAN_ANOMALY":353.3905,"EPHEMERIS_TYPE":0,"CLASSIFICATION_TYPE":"U","NORAD_CAT_ID":19650,"ELEMENT_SET_NO":999,"REV_AT_EPOCH":92642,"BSTAR":0.00011628005,"MEAN_MOTION_DOT":1.82e-6,"MEAN_MOTION_DDOT":0},{"OBJECT_NAME":"INTERCOSMOS 24","OBJECT_ID":"1989-080A","EPOCH":"2026-03-07T04:21:11.383200","MEAN_MOTION":12.5955294,"ECCENTRICITY":0.1186737,"INCLINATION":82.6029,"RA_OF_ASC_NODE":106.0379,"ARG_OF_PERICENTER":298.648,"MEAN_ANOMALY":50.0293,"EPHEMERIS_TYPE":0,"CLASSIFICATION_TYPE":"U","NORAD_CAT_ID":20261,"ELEMENT_SET_NO":999,"REV_AT_EPOCH":66648,"BSTAR":0.0002499,"MEAN_MOTION_DOT":8.4e-6,"MEAN_MOTION_DDOT":0},{"OBJECT_NAME":"SL-14 R/B","OBJECT_ID":"1989-080C","EPOCH":"2026-03-06T08:31:14.458944","MEAN_MOTION":12.50488976,"ECCENTRICITY":0.12304461,"INCLINATION":82.5973,"RA_OF_ASC_NODE":175.3263,"ARG_OF_PERICENTER":192.3694,"MEAN_ANOMALY":164.4455,"EPHEMERIS_TYPE":0,"CLASSIFICATION_TYPE":"U","NORAD_CAT_ID":20262,"ELEMENT_SET_NO":999,"REV_AT_EPOCH":65973,"BSTAR":0.00026385354,"MEAN_MOTION_DOT":8.87e-6,"MEAN_MOTION_DDOT":0},{"OBJECT_NAME":"DELTA 1 R/B","OBJECT_ID":"1989-089B","EPOCH":"2026-03-07T03:18:16.903296","MEAN_MOTION":14.50660348,"ECCENTRICITY":0.0070313,"INCLINATION":97.0707,"RA_OF_ASC_NODE":273.9823,"ARG_OF_PERICENTER":129.9364,"MEAN_ANOMALY":230.8041,"EPHEMERIS_TYPE":0,"CLASSIFICATION_TYPE":"U","NORAD_CAT_ID":20323,"ELEMENT_SET_NO":999,"REV_AT_EPOCH":89536,"BSTAR":0.00010679,"MEAN_MOTION_DOT":3.98e-6,"MEAN_MOTION_DDOT":0},{"OBJECT_NAME":"ARIANE 40 R/B","OBJECT_ID":"1990-005H","EPOCH":"2026-03-07T04:08:55.744224","MEAN_MOTION":14.3986831,"ECCENTRICITY":0.000969,"INCLINATION":98.3088,"RA_OF_ASC_NODE":126.9093,"ARG_OF_PERICENTER":206.2231,"MEAN_ANOMALY":153.8468,"EPHEMERIS_TYPE":0,"CLASSIFICATION_TYPE":"U","NORAD_CAT_ID":20443,"ELEMENT_SET_NO":999,"REV_AT_EPOCH":89244,"BSTAR":0.00011476,"MEAN_MOTION_DOT":3.18e-6,"MEAN_MOTION_DDOT":0},{"OBJECT_NAME":"DELTA 2 R/B(1)","OBJECT_ID":"1990-008B","EPOCH":"2026-03-06T10:08:42.055872","MEAN_MOTION":15.55480561,"ECCENTRICITY":0.00861642,"INCLINATION":35.6042,"RA_OF_ASC_NODE":196.2874,"ARG_OF_PERICENTER":228.5737,"MEAN_ANOMALY":130.757,"EPHEMERIS_TYPE":0,"CLASSIFICATION_TYPE":"U","NORAD_CAT_ID":20453,"ELEMENT_SET_NO":999,"REV_AT_EPOCH":92562,"BSTAR":0.00084423323,"MEAN_MOTION_DOT":0.0007104,"MEAN_MOTION_DDOT":0},{"OBJECT_NAME":"COSMOS 2058","OBJECT_ID":"1990-010A","EPOCH":"2026-03-07T04:45:40.726656","MEAN_MOTION":15.11292739,"ECCENTRICITY":0.000959,"INCLINATION":82.4672,"RA_OF_ASC_NODE":49.8823,"ARG_OF_PERICENTER":351.9384,"MEAN_ANOMALY":8.169,"EPHEMERIS_TYPE":0,"CLASSIFICATION_TYPE":"U","NORAD_CAT_ID":20465,"ELEMENT_SET_NO":999,"REV_AT_EPOCH":94186,"BSTAR":0.00029327,"MEAN_MOTION_DOT":4.969e-5,"MEAN_MOTION_DDOT":0},{"OBJECT_NAME":"SL-14 R/B","OBJECT_ID":"1990-010B","EPOCH":"2026-03-07T01:21:19.859040","MEAN_MOTION":14.83565839,"ECCENTRICITY":0.0018695,"INCLINATION":82.4989,"RA_OF_ASC_NODE":269.863,"ARG_OF_PERICENTER":311.5905,"MEAN_ANOMALY":48.3707,"EPHEMERIS_TYPE":0,"CLASSIFICATION_TYPE":"U","NORAD_CAT_ID":20466,"ELEMENT_SET_NO":999,"REV_AT_EPOCH":92809,"BSTAR":5.4152e-5,"MEAN_MOTION_DOT":4.71e-6,"MEAN_MOTION_DDOT":0},{"OBJECT_NAME":"SL-14 R/B","OBJECT_ID":"1990-018B","EPOCH":"2026-03-06T22:28:56.850240","MEAN_MOTION":14.82140967,"ECCENTRICITY":0.0017638,"INCLINATION":82.5197,"RA_OF_ASC_NODE":225.6628,"ARG_OF_PERICENTER":100.3707,"MEAN_ANOMALY":259.9496,"EPHEMERIS_TYPE":0,"CLASSIFICATION_TYPE":"U","NORAD_CAT_ID":20511,"ELEMENT_SET_NO":999,"REV_AT_EPOCH":92217,"BSTAR":7.7717e-5,"MEAN_MOTION_DOT":6.44e-6,"MEAN_MOTION_DDOT":0},{"OBJECT_NAME":"HST","OBJECT_ID":"1990-037B","EPOCH":"2026-03-07T01:43:17.774400","MEAN_MOTION":15.29432288,"ECCENTRICITY":0.0001811,"INCLINATION":28.471,"RA_OF_ASC_NODE":57.8566,"ARG_OF_PERICENTER":100.2255,"MEAN_ANOMALY":259.8544,"EPHEMERIS_TYPE":0,"CLASSIFICATION_TYPE":"U","NORAD_CAT_ID":20580,"ELEMENT_SET_NO":999,"REV_AT_EPOCH":77291,"BSTAR":0.00029166,"MEAN_MOTION_DOT":8.8e-5,"MEAN_MOTION_DDOT":0},{"OBJECT_NAME":"SL-16 R/B","OBJECT_ID":"1990-046B","EPOCH":"2026-03-07T01:57:29.665440","MEAN_MOTION":14.15013323,"ECCENTRICITY":0.0016212,"INCLINATION":70.9992,"RA_OF_ASC_NODE":303.3924,"ARG_OF_PERICENTER":303.1052,"MEAN_ANOMALY":56.8514,"EPHEMERIS_TYPE":0,"CLASSIFICATION_TYPE":"U","NORAD_CAT_ID":20625,"ELEMENT_SET_NO":999,"REV_AT_EPOCH":84802,"BSTAR":-0.00010331,"MEAN_MOTION_DOT":-2.48e-6,"MEAN_MOTION_DDOT":0},{"OBJECT_NAME":"COSMOS 2084","OBJECT_ID":"1990-055A","EPOCH":"2026-03-07T03:09:46.206720","MEAN_MOTION":15.0563156,"ECCENTRICITY":0.0017446,"INCLINATION":62.7925,"RA_OF_ASC_NODE":344.3021,"ARG_OF_PERICENTER":189.2784,"MEAN_ANOMALY":170.7997,"EPHEMERIS_TYPE":0,"CLASSIFICATION_TYPE":"U","NORAD_CAT_ID":20663,"ELEMENT_SET_NO":999,"REV_AT_EPOCH":93593,"BSTAR":0.00022415,"MEAN_MOTION_DOT":3.059e-5,"MEAN_MOTION_DDOT":0},{"OBJECT_NAME":"SL-6 R/B(2)","OBJECT_ID":"1990-055D","EPOCH":"2026-03-06T23:28:11.841312","MEAN_MOTION":15.03577653,"ECCENTRICITY":0.0024295,"INCLINATION":62.7821,"RA_OF_ASC_NODE":263.0729,"ARG_OF_PERICENTER":346.3598,"MEAN_ANOMALY":13.6841,"EPHEMERIS_TYPE":0,"CLASSIFICATION_TYPE":"U","NORAD_CAT_ID":20666,"ELEMENT_SET_NO":999,"REV_AT_EPOCH":93778,"BSTAR":0.00017946,"MEAN_MOTION_DOT":2.277e-5,"MEAN_MOTION_DDOT":0},{"OBJECT_NAME":"SL-8 R/B","OBJECT_ID":"1990-078B","EPOCH":"2026-03-07T00:31:48.711648","MEAN_MOTION":14.88950066,"ECCENTRICITY":0.0362913,"INCLINATION":82.8998,"RA_OF_ASC_NODE":253.7106,"ARG_OF_PERICENTER":22.96,"MEAN_ANOMALY":338.7382,"EPHEMERIS_TYPE":0,"CLASSIFICATION_TYPE":"U","NORAD_CAT_ID":20775,"ELEMENT_SET_NO":999,"REV_AT_EPOCH":80890,"BSTAR":0.00049097,"MEAN_MOTION_DOT":0.00016688,"MEAN_MOTION_DDOT":0}]
